[{"OBJECT_NAME":"STARLINK-3791","OBJECT_ID":"2022-041J","EPOCH":"2026-03-09T11:52:31.376640","MEAN_MOTION":15.08839939,"ECCENTRICITY":0.00013718,"INCLINATION":53.2168,"RA_OF_ASC_NODE":109.9949,"ARG_OF_PERICENTER":89.2886,"MEAN_ANOMALY":270.8264,"EPHEMERIS_TYPE":0,"CLASSIFICATION_TYPE":"U","NORAD_CAT_ID":52269,"ELEMENT_SET_NO":999,"REV_AT_EPOCH":21433,"BSTAR":3.3938426e-5,"MEAN_MOTION_DOT":2.52e-6,"MEAN_MOTION_DDOT":0},{"OBJECT_NAME":"FENGYUN 1C DEB","OBJECT_ID":"1999-025EEQ","EPOCH":"2026-03-04T07:32:44.635200","MEAN_MOTION":14.50858155,"ECCENTRICITY":0.02656951,"INCLINATION":98.9728,"RA_OF_ASC_NODE":96.1117,"ARG_OF_PERICENTER":260.4903,"MEAN_ANOMALY":96.6174,"EPHEMERIS_TYPE":0,"CLASSIFICATION_TYPE":"U","NORAD_CAT_ID":37056,"ELEMENT_SET_NO":999,"REV_AT_EPOCH":66594,"BSTAR":0.00041717467,"MEAN_MOTION_DOT":2.532e-5,"MEAN_MOTION_DDOT":0}]
